{
  "type": "FeatureCollection",
  "features": [
    {
      "type": "Feature",
      "properties": {
        "norad_id": 41890,
        "name": "CYGFM07",
        "group": "weather",
        "lat": 19.309667958063496,
        "lon": 145.0833403327648,
        "alt_km": 414.2147161166622,
        "timestamp": "2025-12-16T17:51:10.567245+00:00",
        "meta_object_name": "CYGFM07",
        "meta_object_id": "2016-078G",
        "meta_epoch": "2025-12-15T18:02:48.628608",
        "meta_mean_motion": 15.50132349,
        "meta_eccentricity": 0.00101327,
        "meta_inclination": 34.9485,
        "meta_ra_of_asc_node": 1.7018,
        "meta_arg_of_pericenter": 241.5134,
        "meta_mean_anomaly": 118.4568,
        "meta_ephemeris_type": 0,
        "meta_classification_type": "U",
        "meta_norad_cat_id": 41890,
        "meta_element_set_no": 999,
        "meta_rev_at_epoch": 50042,
        "meta_bstar": 0.00029703404,
        "meta_mean_motion_dot": 0.00017277,
        "meta_mean_motion_ddot": 0,
        "tle_line1": "1 41890U 16078G   25349.75195172  .00017277  00000+0  29703-3 0  9991",
        "tle_line2": "2 41890  34.9485   1.7018 0010132 241.5134 118.4568 15.50132349500428"
      },
      "geometry": {
        "type": "Point",
        "coordinates": [
          145.0833403327648,
          19.309667958063496
        ]
      }
    },
    {
      "type": "Feature",
      "properties": {
        "norad_id": 41891,
        "name": "CYGFM03",
        "group": "weather",
        "lat": -12.343173698773878,
        "lon": -21.145074757229686,
        "alt_km": 417.87783883379507,
        "timestamp": "2025-12-16T17:51:10.567255+00:00",
        "meta_object_name": "CYGFM03",
        "meta_object_id": "2016-078H",
        "meta_epoch": "2025-12-15T11:01:57.262656",
        "meta_mean_motion": 15.50020287,
        "meta_eccentricity": 0.00095309,
        "meta_inclination": 34.9439,
        "meta_ra_of_asc_node": 5.539,
        "meta_arg_of_pericenter": 227.0322,
        "meta_mean_anomaly": 132.9601,
        "meta_ephemeris_type": 0,
        "meta_classification_type": "U",
        "meta_norad_cat_id": 41891,
        "meta_element_set_no": 999,
        "meta_rev_at_epoch": 50035,
        "meta_bstar": 0.00029678263,
        "meta_mean_motion_dot": 0.0001719,
        "meta_mean_motion_ddot": 0,
        "tle_line1": "1 41891U 16078H   25349.45969054  .00017190  00000+0  29678-3 0  9992",
        "tle_line2": "2 41891  34.9439   5.5390 0009530 227.0322 132.9601 15.50020287500359"
      },
      "geometry": {
        "type": "Point",
        "coordinates": [
          -21.145074757229686,
          -12.343173698773878
        ]
      }
    },
    {
      "type": "Feature",
      "properties": {
        "norad_id": 43010,
        "name": "FENGYUN 3D",
        "group": "weather",
        "lat": -58.159520929007584,
        "lon": -28.119207115518098,
        "alt_km": 833.9908771673508,
        "timestamp": "2025-12-16T17:51:10.567266+00:00",
        "meta_object_name": "FENGYUN 3D",
        "meta_object_id": "2017-072A",
        "meta_epoch": "2025-12-15T23:31:33.307104",
        "meta_mean_motion": 14.19685106,
        "meta_eccentricity": 0.00010796,
        "meta_inclination": 98.9888,
        "meta_ra_of_asc_node": 316.3391,
        "meta_arg_of_pericenter": 171.6001,
        "meta_mean_anomaly": 188.5192,
        "meta_ephemeris_type": 0,
        "meta_classification_type": "U",
        "meta_norad_cat_id": 43010,
        "meta_element_set_no": 999,
        "meta_rev_at_epoch": 41899,
        "meta_bstar": 9.8748252e-05,
        "meta_mean_motion_dot": 1.63e-06,
        "meta_mean_motion_ddot": 0,
        "tle_line1": "1 43010U 17072A   25349.98024661  .00000163  00000+0  98748-4 0  9993",
        "tle_line2": "2 43010  98.9888 316.3391 0001079 171.6001 188.5192 14.19685106418995"
      },
      "geometry": {
        "type": "Point",
        "coordinates": [
          -28.119207115518098,
          -58.159520929007584
        ]
      }
    },
    {
      "type": "Feature",
      "properties": {
        "norad_id": 43013,
        "name": "NOAA 20 (JPSS-1)",
        "group": "weather",
        "lat": 81.20560753551841,
        "lon": -167.66995566729244,
        "alt_km": 817.9659588246259,
        "timestamp": "2025-12-16T17:51:10.567277+00:00",
        "meta_object_name": "NOAA 20 (JPSS-1)",
        "meta_object_id": "2017-073A",
        "meta_epoch": "2025-12-15T21:07:38.993088",
        "meta_mean_motion": 14.19526557,
        "meta_eccentricity": 0.00021548,
        "meta_inclination": 98.7602,
        "meta_ra_of_asc_node": 286.1427,
        "meta_arg_of_pericenter": 82.6874,
        "meta_mean_anomaly": 277.4547,
        "meta_ephemeris_type": 0,
        "meta_classification_type": "U",
        "meta_norad_cat_id": 43013,
        "meta_element_set_no": 999,
        "meta_rev_at_epoch": 41846,
        "meta_bstar": 5.3735743e-05,
        "meta_mean_motion_dot": 6.9e-07,
        "meta_mean_motion_ddot": 0,
        "tle_line1": "1 43013U 17073A   25349.88031242  .00000069  00000+0  53736-4 0  9992",
        "tle_line2": "2 43013  98.7602 286.1427 0002154  82.6874 277.4547 14.19526557418466"
      },
      "geometry": {
        "type": "Point",
        "coordinates": [
          -167.66995566729244,
          81.20560753551841
        ]
      }
    },
    {
      "type": "Feature",
      "properties": {
        "norad_id": 43226,
        "name": "GOES 17",
        "group": "weather",
        "lat": 0.01796084357268581,
        "lon": -96.09234976097274,
        "alt_km": 35773.36922271336,
        "timestamp": "2025-12-16T17:51:10.567290+00:00",
        "meta_object_name": "GOES 17",
        "meta_object_id": "2018-022A",
        "meta_epoch": "2025-12-15T21:31:19.484256",
        "meta_mean_motion": 1.00271456,
        "meta_eccentricity": 0.00031467,
        "meta_inclination": 0.4667,
        "meta_ra_of_asc_node": 89.1554,
        "meta_arg_of_pericenter": 190.1059,
        "meta_mean_anomaly": 38.87,
        "meta_ephemeris_type": 0,
        "meta_classification_type": "U",
        "meta_norad_cat_id": 43226,
        "meta_element_set_no": 999,
        "meta_rev_at_epoch": 2858,
        "meta_bstar": 0,
        "meta_mean_motion_dot": -1.6e-06,
        "meta_mean_motion_ddot": 0,
        "tle_line1": "1 43226U 18022A   25349.89675329 -.00000160  00000+0  00000+0 0  9998",
        "tle_line2": "2 43226   0.4667  89.1554 0003146 190.1059  38.8700  1.00271456 28588"
      },
      "geometry": {
        "type": "Point",
        "coordinates": [
          -96.09234976097274,
          0.01796084357268581
        ]
      }
    },
    {
      "type": "Feature",
      "properties": {
        "norad_id": 43491,
        "name": "FENGYUN 2H",
        "group": "weather",
        "lat": -0.3541052935667314,
        "lon": 72.7761185805606,
        "alt_km": 35796.98467226497,
        "timestamp": "2025-12-16T17:51:10.567304+00:00",
        "meta_object_name": "FENGYUN 2H",
        "meta_object_id": "2018-050A",
        "meta_epoch": "2025-12-15T22:19:29.870112",
        "meta_mean_motion": 1.00271371,
        "meta_eccentricity": 0.00025374,
        "meta_inclination": 2.5591,
        "meta_ra_of_asc_node": 81.2964,
        "meta_arg_of_pericenter": 167.0661,
        "meta_mean_anomaly": 250.6964,
        "meta_ephemeris_type": 0,
        "meta_classification_type": "U",
        "meta_norad_cat_id": 43491,
        "meta_element_set_no": 999,
        "meta_rev_at_epoch": 2760,
        "meta_bstar": 0,
        "meta_mean_motion_dot": -1.09e-06,
        "meta_mean_motion_ddot": 0,
        "tle_line1": "1 43491U 18050A   25349.93020683 -.00000109  00000+0  00000+0 0  9998",
        "tle_line2": "2 43491   2.5591  81.2964 0002537 167.0661 250.6964  1.00271371 27608"
      },
      "geometry": {
        "type": "Point",
        "coordinates": [
          72.7761185805606,
          -0.3541052935667314
        ]
      }
    },
    {
      "type": "Feature",
      "properties": {
        "norad_id": 43689,
        "name": "METOP-C",
        "group": "weather",
        "lat": -76.70580117118385,
        "lon": -171.9003611852003,
        "alt_km": 828.1638230385006,
        "timestamp": "2025-12-16T17:51:10.567323+00:00",
        "meta_object_name": "METOP-C",
        "meta_object_id": "2018-087A",
        "meta_epoch": "2025-12-15T22:03:04.819392",
        "meta_mean_motion": 14.21485566,
        "meta_eccentricity": 0.00011018,
        "meta_inclination": 98.6928,
        "meta_ra_of_asc_node": 47.6398,
        "meta_arg_of_pericenter": 33.5759,
        "meta_mean_anomaly": 326.5488,
        "meta_ephemeris_type": 0,
        "meta_classification_type": "U",
        "meta_norad_cat_id": 43689,
        "meta_element_set_no": 999,
        "meta_rev_at_epoch": 36879,
        "meta_bstar": 7.6510699e-05,
        "meta_mean_motion_dot": 1.24e-06,
        "meta_mean_motion_ddot": 0,
        "tle_line1": "1 43689U 18087A   25349.91880578  .00000124  00000+0  76511-4 0  9993",
        "tle_line2": "2 43689  98.6928  47.6398 0001101  33.5759 326.5488 14.21485566368797"
      },
      "geometry": {
        "type": "Point",
        "coordinates": [
          -171.9003611852003,
          -76.70580117118385
        ]
      }
    }
  ]
}